{"fetched_at":"2026-03-29T16:36:15Z","count":15609,"tles":[{"name":"STARLINK-11346 [DTC]","line1":"1 61697U 24195L   26087.83570556 -.00002711  00000+0 -17537-4 0  9991","line2":"2 61697  53.1585 291.6577 0000908 115.9661 244.1451 15.69697851 82043","category":"Starlink"}]}